NORAD_CAT_ID,OBJECT_NAME,OBJECT_TYPE,EPOCH,MEAN_MOTION,ECCENTRICITY,INCLINATION,RA_OF_ASC_NODE,ARG_OF_PERICENTER,MEAN_ANOMALY,BSTAR,MEAN_MOTION_DOT,MEAN_MOTION_DDOT,TLE_LINE0,TLE_LINE1,TLE_LINE2,SEMIMAJOR_AXIS,PERIOD,APOGEE,PERIGEE,DECAYED
50193.0,STARLINK-3261,PAYLOAD,2023-04-17 20:24:57,15.08838024,0.0001271,53.2162,303.4543,93.7514,266.3623,0.00021411,3.121e-05,0.0,0 STARLINK-3261,1 50193U 21125AP  23107.85066794  .00003121  00000-0  21411-3 0  9996,2 50193  53.2162 303.4543 0001271  93.7514 266.3623 15.08838024 76708,6917.886,95.438,540.631,538.872,0.0
50193.0,STARLINK-3261,PAYLOAD,2023-04-18 12:18:49,15.08840816,0.0001515,53.2163,300.4803,89.1548,270.9618,0.00023457,3.447e-05,0.0,0 STARLINK-3261,1 50193U 21125AP  23108.51306971  .00003447  00000-0  23457-3 0  9997,2 50193  53.2163 300.4803 0001515  89.1548 270.9618 15.08840816 77339,6917.878,95.438,540.791,538.695,0.0
50193.0,STARLINK-3261,PAYLOAD,2023-04-18 17:04:58,15.08842208,0.0001352,53.2164,299.5882,85.7615,274.3532,0.00028056,4.18e-05,0.0,0 STARLINK-3261,1 50193U 21125AP  23108.71178943  .00004180  00000-0  28056-3 0  9990,2 50193  53.2164 299.5882 0001352  85.7615 274.3532 15.08842208 77364,6917.874,95.437,540.674,538.803,0.0
50193.0,STARLINK-3261,PAYLOAD,2023-04-19 05:48:03,15.08844949,0.0001221,53.2155,297.2091,74.8373,285.2754,0.00021083,3.07e-05,0.0,0 STARLINK-3261,1 50193U 21125AP  23109.24170759  .00003070  00000-0  21083-3 0  9996,2 50193  53.2155 297.2091 0001221  74.8373 285.2754 15.08844949 76917,6917.865,95.437,540.575,538.886,0.0
50193.0,STARLINK-3261,PAYLOAD,2023-04-19 18:31:08,15.08845806,0.000114,53.2163,294.8283,80.8096,279.3025,0.00020804,3.025e-05,0.0,0 STARLINK-3261,1 50193U 21125AP  23109.77162667  .00003025  00000-0  20804-3 0  9993,2 50193  53.2163 294.8283 0001140  80.8096 279.3025 15.08845806 77527,6917.863,95.437,540.516,538.939,0.0
50193.0,STARLINK-3261,PAYLOAD,2023-04-20 05:38:50,15.0884769,0.0001072,53.2157,292.7488,75.4943,284.6168,0.0001866,2.684e-05,0.0,0 STARLINK-3261,1 50193U 21125AP  23110.23530520  .00002684  00000-0  18660-3 0  9990,2 50193  53.2157 292.7488 0001072  75.4943 284.6168 15.08847690 77596,6917.857,95.437,540.463,538.98,0.0
50193.0,STARLINK-3261,PAYLOAD,2023-04-20 18:21:55,15.08841245,0.0001146,53.2157,290.3692,73.7194,286.3924,4.0074e-05,3.5e-06,0.0,0 STARLINK-3261,1 50193U 21125AP  23110.76522712  .00000350  00000-0  40074-4 0  9995,2 50193  53.2157 290.3692 0001146  73.7194 286.3924 15.08841245 77148,6917.877,95.437,540.534,538.949,0.0
50193.0,STARLINK-3261,PAYLOAD,2023-04-21 05:29:37,15.08845313,0.0001187,53.2163,288.287,85.2468,274.866,7.2764e-05,8.71e-06,0.0,0 STARLINK-3261,1 50193U 21125AP  23111.22890536  .00000871  00000-0  72764-4 0  9998,2 50193  53.2163 288.2870 0001187  85.2468 274.8660 15.08845313 77741,6917.864,95.437,540.55,538.908,0.0
50193.0,STARLINK-3261,PAYLOAD,2023-04-21 11:51:10,15.08838178,0.0001198,53.2154,287.0987,80.084,280.0287,0.00010271,1.347e-05,0.0,0 STARLINK-3261,1 50193U 21125AP  23111.49386974  .00001347  00000-0  10271-3 0  9996,2 50193  53.2154 287.0987 0001198  80.0840 280.0287 15.08838178 77785,6917.886,95.438,540.58,538.922,0.0
50193.0,STARLINK-3261,PAYLOAD,2023-04-22 11:41:57,15.08840816,0.000114,53.2156,282.6392,74.8145,285.2974,0.00015529,2.185e-05,0.0,0 STARLINK-3261,1 50193U 21125AP  23112.48746798  .00002185  00000-0  15529-3 0  9992,2 50193  53.2156 282.6392 0001140  74.8145 285.2974 15.08840816 77405,6917.878,95.438,540.532,538.954,0.0
50193.0,STARLINK-3261,PAYLOAD,2023-04-22 19:38:52,15.08846574,0.0001196,53.2143,281.1511,76.2221,283.8904,0.0001426,1.983e-05,0.0,0 STARLINK-3261,1 50193U 21125AP  23112.81866441  .00001983  00000-0  14260-3 0  9993,2 50193  53.2143 281.1511 0001196  76.2221 283.8904 15.08846574 77987,6917.86,95.437,540.553,538.898,0.0
50193.0,STARLINK-3261,PAYLOAD,2023-04-23 11:32:44,15.08835407,0.0001417,53.2153,278.1762,84.1503,275.9651,2.9257e-05,1.78e-06,0.0,0 STARLINK-3261,1 50193U 21125AP  23113.48107198  .00000178  00000-0  29257-4 0  9992,2 50193  53.2153 278.1762 0001417  84.1503 275.9651 15.08835407 77556,6917.894,95.438,540.74,538.779,0.0
50193.0,STARLINK-3261,PAYLOAD,2023-04-23 19:29:40,15.08840408,0.0001413,53.2157,276.6887,84.8301,275.2852,7.7485e-05,9.45e-06,0.0,0 STARLINK-3261,1 50193U 21125AP  23113.81227012  .00000945  00000-0  77485-4 0  9995,2 50193  53.2157 276.6887 0001413  84.8301 275.2852 15.08840408 78138,6917.879,95.438,540.722,538.767,0.0
50193.0,STARLINK-3261,PAYLOAD,2023-04-24 17:45:02,15.08859718,5.14e-05,53.2174,272.528,234.2622,125.8322,0.00027009,4.016e-05,0.0,0 STARLINK-3261,1 50193U 21125AP  23114.73961413  .00004016  00000-0  27009-3 0  9996,2 50193  53.2174 272.5280 0000514 234.2622 125.8322 15.08859718 77749,6917.82,95.436,540.041,539.33,0.0
50193.0,STARLINK-3261,PAYLOAD,2023-04-25 09:38:56,15.08792853,9.13e-05,53.2162,269.5517,112.9722,247.1366,-0.0011638,-0.00018738,0.0,0 STARLINK-3261,1 50193U 21125AP  23115.40203817 -.00018738  00000-0 -11638-2 0  9996,2 50193  53.2162 269.5517 0000913 112.9722 247.1366 15.08792853 78373,6918.025,95.441,540.521,539.258,0.0
50193.0,STARLINK-3261,PAYLOAD,2023-04-26 12:40:30,15.08837021,6.64e-05,53.2153,264.498,121.373,238.7327,0.00038295,5.812e-05,0.0,0 STARLINK-3261,1 50193U 21125AP  23116.52813011  .00005812  00000-0  38295-3 0  9999,2 50193  53.2153 264.4980 0000664 121.3730 238.7327 15.08837021 78546,6917.889,95.438,540.214,539.295,0.0
50193.0,STARLINK-3261,PAYLOAD,2023-04-27 09:20:31,15.08850818,0.0001257,53.2149,260.6323,112.8061,247.3064,0.00074888,0.00011654,0.0,0 STARLINK-3261,1 50193U 21125AP  23117.38925218  .00011654  00000-0  74888-3 0  9996,2 50193  53.2149 260.6323 0001257 112.8061 247.3064 15.08850818 78678,6917.847,95.437,540.582,538.843,0.0
50193.0,STARLINK-3261,PAYLOAD,2023-04-27 18:52:50,15.0885515,9.22e-05,53.2146,258.8479,94.5657,265.544,0.0013789,0.00021734,0.0,0 STARLINK-3261,1 50193U 21125AP  23117.78669171  .00021734  00000-0  13789-2 0  9995,2 50193  53.2146 258.8479 0000922  94.5657 265.5440 15.08855150 78204,6917.834,95.437,540.337,539.061,0.0
50193.0,STARLINK-3261,PAYLOAD,2023-04-28 12:22:03,15.0885405,9.37e-05,53.2145,255.5771,100.6357,259.4741,4.3619e-05,4.07e-06,0.0,0 STARLINK-3261,1 50193U 21125AP  23118.51531806  .00000407  00000-0  43619-4 0  9991,2 50193  53.2145 255.5771 0000937 100.6357 259.4741 15.08854050 78310,6917.837,95.437,540.351,539.054,0.0
50193.0,STARLINK-3261,PAYLOAD,2023-04-29 13:48:13,15.08847384,7.36e-05,53.2154,250.819,81.5396,278.568,0.00010981,1.461e-05,0.0,0 STARLINK-3261,1 50193U 21125AP  23119.57515563  .00001461  00000-0  10981-3 0  9996,2 50193  53.2154 250.8190 0000736  81.5396 278.5680 15.08847384 79003,6917.858,95.437,540.232,539.214,0.0
50193.0,STARLINK-3261,PAYLOAD,2023-04-29 18:34:22,15.08850655,8.5e-05,53.2143,249.9253,99.412,260.6968,0.00022261,3.258e-05,0.0,0 STARLINK-3261,1 50193U 21125AP  23119.77387421  .00003258  00000-0  22261-3 0  9998,2 50193  53.2143 249.9253 0000850  99.4120 260.6968 15.08850655 78500,6917.848,95.437,540.301,539.125,0.0
50193.0,STARLINK-3261,PAYLOAD,2023-04-30 13:39:00,15.08843264,8.44e-05,53.2148,246.3579,99.1765,260.9323,0.00017314,2.469e-05,0.0,0 STARLINK-3261,1 50193U 21125AP  23120.56875680  .00002469  00000-0  17314-3 0  9992,2 50193  53.2148 246.3579 0000844  99.1765 260.9323 15.08843264 79150,6917.87,95.437,540.319,539.152,0.0
50193.0,STARLINK-3261,PAYLOAD,2023-04-30 15:14:23,15.08841692,8.02e-05,53.2146,246.0604,96.6246,263.4838,0.0001651,2.341e-05,0.0,0 STARLINK-3261,1 50193U 21125AP  23120.63499730  .00002341  00000-0  16510-3 0  9994,2 50193  53.2146 246.0604 0000802  96.6246 263.4838 15.08841692 78638,6917.875,95.437,540.295,539.185,0.0
50193.0,STARLINK-3261,PAYLOAD,2023-05-01 13:29:48,15.08835597,8.24e-05,53.2153,241.898,84.592,275.5166,1.7578e-05,-8e-08,0.0,0 STARLINK-3261,1 50193U 21125AP  23121.56236169 -.00000008  00000-0  17578-4 0  9997,2 50193  53.2153 241.8980 0000824  84.5920 275.5166 15.08835597 78775,6917.894,95.438,540.329,539.189,0.0
50193.0,STARLINK-3261,PAYLOAD,2023-05-02 13:20:34,15.08849144,7.83e-05,53.2153,237.4375,78.6297,281.4783,0.00024158,3.56e-05,0.0,0 STARLINK-3261,1 50193U 21125AP  23122.55595593  .00003560  00000-0  24158-3 0  9992,2 50193  53.2153 237.4375 0000783  78.6297 281.4783 15.08849144 78920,6917.852,95.437,540.259,539.176,0.0
50193.0,STARLINK-3261,PAYLOAD,2023-05-02 14:55:57,15.0885306,7.26e-05,53.2155,237.1401,75.2245,284.8827,0.00028709,4.286e-05,0.0,0 STARLINK-3261,1 50193U 21125AP  23122.62219399  .00004286  00000-0  28709-3 0  9999,2 50193  53.2155 237.1401 0000726  75.2245 284.8827 15.08853060 79460,6917.84,95.437,540.208,539.203,0.0
50193.0,STARLINK-3261,PAYLOAD,2023-05-03 02:03:39,15.0884341,9.23e-05,53.2164,235.0629,107.99,252.1193,4.7455e-05,4.68e-06,0.0,0 STARLINK-3261,1 50193U 21125AP  23123.08587894  .00000468  00000-0  47455-4 0  9996,2 50193  53.2164 235.0629 0000923 107.9900 252.1193 15.08843410 79001,6917.87,95.437,540.373,539.096,0.0
50193.0,STARLINK-3261,PAYLOAD,2023-05-03 13:11:22,15.08832725,7.36e-05,53.2153,232.9794,89.7013,270.4063,-7.9247e-05,-1.548e-05,0.0,0 STARLINK-3261,1 50193U 21125AP  23123.54956389 -.00001548  00000-0 -79247-4 0  9992,2 50193  53.2153 232.9794 0000736  89.7013 270.4063 15.08832725 79075,6917.903,95.438,540.277,539.258,0.0
50193.0,STARLINK-3261,PAYLOAD,2023-05-03 14:46:45,15.0883577,7.4e-05,53.2161,232.6815,89.734,270.3737,2.2465e-05,7e-07,0.0,0 STARLINK-3261,1 50193U 21125AP  23123.61580718  .00000070  00000-0  22465-4 0  9996,2 50193  53.2161 232.6815 0000740  89.7340 270.3737 15.08835770 79613,6917.893,95.438,540.27,539.246,0.0
50193.0,STARLINK-3261,PAYLOAD,2023-05-04 13:02:09,15.08842269,8.27e-05,53.2158,228.5175,78.0763,282.0321,3.9364e-05,3.39e-06,0.0,0 STARLINK-3261,1 50193U 21125AP  23124.54316375  .00000339  00000-0  39364-4 0  9999,2 50193  53.2158 228.5175 0000827  78.0763 282.0321 15.08842269 79753,6917.873,95.437,540.311,539.166,0.0
